STARLETTE               
1 07646U 75010A   08347.86393315 -.00000146  00000-0 -26833-5 0  8063
2 07646  49.8234 146.2532 0205810 177.2944 182.9111 13.82271284709915
LAGEOS 1                
1 08820U 76039A   08347.10698215  .00000011  00000-0  10000-3 0  7047
2 08820 109.8148 148.3539 0044690 231.9882 127.6638  6.38664467505092
EGP                     
1 16908U 86061A   08347.24143989 -.00000083  00000-0  10000-3 0  7777
2 16908  50.0119  13.7999 0011382 102.5722 257.6387 12.44461085684320
LAGEOS 2                
1 22195U 92070B   08348.18151708 -.00000009  00000-0  10000-3 0  9164
2 22195  52.6771 348.4206 0137233 271.1521  87.3318  6.47293724381628
STELLA                  
1 22824U 93061B   08347.41865587 -.00000229  00000-0 -76262-4 0  1481
2 22824  98.4525 295.6214 0007185 125.3496 234.8377 14.27281211792543
WESTPAC                 
1 25398U 98043E   08347.81544594 -.00000031  00000-0  44723-5 0  4033
2 25398  98.3469  12.9890 0002255  57.3832 302.7572 14.22673280541516
GRACE 1                 
1 27391U 02012A   08347.83464682  .00000544  00000-0  15372-4 0   682
2 27391  89.0136  27.8682 0019082 105.8753 254.4639 15.34024939376743
GRACE 2                 
1 27392U 02012B   08347.83425426  .00000477  00000-0  13335-4 0   699
2 27392  89.0138  27.8812 0020045 108.0231 252.3244 15.34025398376747
